NORAD_CAT_ID,OBJECT_NAME,OBJECT_TYPE,EPOCH,MEAN_MOTION,ECCENTRICITY,INCLINATION,RA_OF_ASC_NODE,ARG_OF_PERICENTER,MEAN_ANOMALY,BSTAR,MEAN_MOTION_DOT,MEAN_MOTION_DDOT,TLE_LINE0,TLE_LINE1,TLE_LINE2,SEMIMAJOR_AXIS,PERIOD,APOGEE,PERIGEE,DECAYED
55774.0,STARLINK-5812,PAYLOAD,2024-04-14 13:58:57,14.98337636,0.0002831,70.001,174.5081,261.4356,98.6482,7.6949e-05,8.25e-06,0.0,0 STARLINK-5812,1 55774U 23028AK  24105.58260686  .00000825  00000-0  76949-4 0  9990,2 55774  70.0010 174.5081 0002831 261.4356  98.6482 14.98337636 62561,6950.169,96.107,574.002,570.067,0.0
55774.0,STARLINK-5812,PAYLOAD,2024-04-15 04:24:10,14.98329943,0.0002819,70.0009,172.9933,263.8575,96.2263,8.5223e-05,9.24e-06,0.0,0 STARLINK-5812,1 55774U 23028AK  24106.18345005  .00000924  00000-0  85223-4 0  9991,2 55774  70.0009 172.9933 0002819 263.8575  96.2263 14.98329943 62655,6950.193,96.107,574.017,570.099,0.0
55774.0,STARLINK-5812,PAYLOAD,2024-04-15 14:00:58,14.98330361,0.0002807,70.001,171.9836,263.4888,96.5952,7.7909e-05,8.37e-06,0.0,0 STARLINK-5812,1 55774U 23028AK  24106.58400971  .00000837  00000-0  77909-4 0  9994,2 55774  70.0010 171.9836 0002807 263.4888  96.5952 14.98330361 62719,6950.192,96.107,574.008,570.106,0.0
55774.0,STARLINK-5812,PAYLOAD,2024-04-16 04:26:11,14.9831463,0.0002806,70.0008,170.4663,271.3501,88.7337,0.00021563,2.48e-05,0.0,0 STARLINK-5812,1 55774U 23028AK  24107.18485286  .00002480  00000-0  21563-3 0  9993,2 55774  70.0008 170.4663 0002806 271.3501  88.7337 14.98314630 62808,6950.24,96.108,574.056,570.155,0.0
55774.0,STARLINK-5812,PAYLOAD,2024-04-16 12:26:51,14.98332678,0.0002786,70.0008,169.6245,268.6251,91.4589,6.8445e-05,7.24e-06,0.0,0 STARLINK-5812,1 55774U 23028AK  24107.51864723  .00000724  00000-0  68445-4 0  9997,2 55774  70.0008 169.6245 0002786 268.6251  91.4589 14.98332678 62859,6950.185,96.107,573.986,570.113,0.0
55774.0,STARLINK-5812,PAYLOAD,2024-04-16 14:02:59,14.98335178,0.0002546,70.0012,169.4561,261.9179,98.1691,5.7615e-05,5.95e-06,0.0,0 STARLINK-5812,1 55774U 23028AK  24107.58540577  .00000595  00000-0  57615-4 0  9995,2 55774  70.0012 169.4561 0002546 261.9179  98.1691 14.98335178 62869,6950.177,96.107,573.811,570.272,0.0
55774.0,STARLINK-5812,PAYLOAD,2024-04-17 12:28:51,14.98336945,0.0002809,70.0009,167.1023,270.1893,89.8944,2.6617e-05,2.25e-06,0.0,0 STARLINK-5812,1 55774U 23028AK  24108.52004196  .00000225  00000-0  26617-4 0  9990,2 55774  70.0009 167.1023 0002809 270.1893  89.8944 14.98336945 63008,6950.171,96.107,573.989,570.084,0.0
55774.0,STARLINK-5812,PAYLOAD,2024-04-17 14:04:59,14.98337263,0.0002808,70.0009,166.934,270.1925,89.8912,2.9902e-05,2.64e-06,0.0,0 STARLINK-5812,1 55774U 23028AK  24108.58680138  .00000264  00000-0  29902-4 0  9995,2 55774  70.0009 166.9340 0002808 270.1925  89.8912 14.98337263 63012,6950.17,96.107,573.987,570.084,0.0
55774.0,STARLINK-5812,PAYLOAD,2024-04-18 04:30:14,14.98313558,0.0002457,70.0039,165.4214,258.2256,101.8628,-9.1918e-05,-1.189e-05,0.0,0 STARLINK-5812,1 55774U 23028AK  24109.18766263 -.00001189  00000-0 -91918-4 0  9991,2 55774  70.0039 165.4214 0002457 258.2256 101.8628 14.98313558 63103,6950.244,96.108,573.816,570.401,0.0
55774.0,STARLINK-5812,PAYLOAD,2024-04-18 12:30:55,14.98308929,0.000275,70.0013,164.5809,250.2331,109.8531,-0.00024589,-3.024e-05,0.0,0 STARLINK-5812,1 55774U 23028AK  24109.52147304 -.00003024  00000-0 -24589-3 0  9997,2 55774  70.0013 164.5809 0002750 250.2331 109.8531 14.98308929 63159,6950.258,96.108,574.034,570.212,0.0
55774.0,STARLINK-5812,PAYLOAD,2024-04-18 14:07:03,14.98307152,0.0002686,70.0008,164.41,265.8822,94.203,-0.00026042,-3.197e-05,0.0,0 STARLINK-5812,1 55774U 23028AK  24109.58823656 -.00003197  00000-0 -26042-3 0  9991,2 55774  70.0008 164.4100 0002686 265.8822  94.2030 14.98307152 63160,6950.264,96.108,573.995,570.262,0.0
55774.0,STARLINK-5812,PAYLOAD,2024-04-19 04:32:15,14.98321651,0.0003516,69.9985,162.8933,273.2874,86.7883,-0.00015081,-1.892e-05,0.0,0 STARLINK-5812,1 55774U 23028AK  24110.18906944 -.00001892  00000-0 -15081-3 0  9992,2 55774  69.9985 162.8933 0003516 273.2874  86.7883 14.98321651 63252,6950.219,96.108,574.527,569.64,0.0
55774.0,STARLINK-5812,PAYLOAD,2024-04-19 12:32:55,14.98327897,0.0002736,69.9999,162.0526,248.5584,111.5284,-1.5284e-06,-1.11e-06,0.0,0 STARLINK-5812,1 55774U 23028AK  24110.52286218 -.00000111  00000-0 -15284-5 0  9995,2 55774  69.9999 162.0526 0002736 248.5584 111.5284 14.98327897 63309,6950.199,96.107,573.966,570.163,0.0
55774.0,STARLINK-5812,PAYLOAD,2024-04-20 04:34:14,14.98336871,0.0003168,69.9988,160.3695,271.322,88.7576,0.00037418,4.375e-05,0.0,0 STARLINK-5812,1 55774U 23028AK  24111.19044542  .00004375  00000-0  37418-3 0  9996,2 55774  69.9988 160.3695 0003168 271.3220  88.7576 14.98336871 63408,6950.172,96.107,574.238,569.835,0.0
55774.0,STARLINK-5812,PAYLOAD,2024-04-20 12:34:53,14.98345704,0.0002268,70.0014,159.5281,270.4539,89.636,0.0005222,6.146e-05,0.0,0 STARLINK-5812,1 55774U 23028AK  24111.52423454  .00006146  00000-0  52220-3 0  9992,2 55774  70.0014 159.5281 0002268 270.4539  89.6360 14.98345704 63456,6950.144,96.106,573.586,570.433,0.0
55774.0,STARLINK-5812,PAYLOAD,2024-04-21 04:36:17,14.98315609,0.0003021,70.0002,157.8448,264.6177,95.4637,-0.00019027,-2.362e-05,0.0,0 STARLINK-5812,1 55774U 23028AK  24112.19187388 -.00002362  00000-0 -19027-3 0  9995,2 55774  70.0002 157.8448 0003021 264.6177  95.4637 14.98315609 63554,6950.237,96.108,574.202,570.003,0.0
55774.0,STARLINK-5812,PAYLOAD,2024-04-21 12:36:58,14.98311785,0.0003247,69.9993,157.002,265.9104,94.1684,-0.00023747,-2.924e-05,0.0,0 STARLINK-5812,1 55774U 23028AK  24112.52568005 -.00002924  00000-0 -23747-3 0  9999,2 55774  69.9993 157.0020 0003247 265.9104  94.1684 14.98311785 63607,6950.249,96.108,574.371,569.857,0.0
55774.0,STARLINK-5812,PAYLOAD,2024-04-22 04:38:18,14.9833745,0.0003159,69.9988,155.316,271.6045,88.4752,-0.000286,-3.505e-05,0.0,0 STARLINK-5812,1 55774U 23028AK  24113.19326718 -.00003505  00000-0 -28600-3 0  9995,2 55774  69.9988 155.3160 0003159 271.6045  88.4752 14.98337450 63707,6950.17,96.107,574.23,569.839,0.0
55774.0,STARLINK-5812,PAYLOAD,2024-04-22 11:02:50,14.98339362,0.000237,70.001,154.6451,253.0342,107.0558,-0.00023016,-2.839e-05,0.0,0 STARLINK-5812,1 55774U 23028AK  24113.46030232 -.00002839  00000-0 -23016-3 0  9993,2 55774  70.0010 154.6451 0002370 253.0342 107.0558 14.98339362 63749,6950.164,96.106,573.676,570.382,0.0
55774.0,STARLINK-5812,PAYLOAD,2024-04-22 12:38:58,14.98340211,0.0002397,70.0009,154.4763,263.6371,96.4515,-0.00019799,-2.455e-05,0.0,0 STARLINK-5812,1 55774U 23028AK  24113.52706260 -.00002455  00000-0 -19799-3 0  9998,2 55774  70.0009 154.4763 0002397 263.6371  96.4515 14.98340211 63759,6950.161,96.106,573.692,570.36,0.0
55774.0,STARLINK-5812,PAYLOAD,2024-04-23 04:40:18,14.98323306,0.0003077,69.9992,152.7917,263.0258,97.0551,0.00036979,4.321e-05,0.0,0 STARLINK-5812,1 55774U 23028AK  24114.19465463  .00004321  00000-0  36979-3 0  9990,2 55774  69.9992 152.7917 0003077 263.0258  97.0551 14.98323306 63857,6950.214,96.107,574.217,569.94,0.0
55774.0,STARLINK-5812,PAYLOAD,2024-04-23 12:40:58,14.98329624,0.0002791,69.9999,151.9514,261.4041,98.6802,0.00038139,4.461e-05,0.0,0 STARLINK-5812,1 55774U 23028AK  24114.52845097  .00004461  00000-0  38139-3 0  9997,2 55774  69.9999 151.9514 0002791 261.4041  98.6802 14.98329624 63903,6950.194,96.107,573.999,570.119,0.0
55774.0,STARLINK-5812,PAYLOAD,2024-04-24 12:42:59,14.98333348,0.0002787,70.0002,149.4278,267.2034,92.8806,8.4691e-05,9.18e-06,0.0,0 STARLINK-5812,1 55774U 23028AK  24115.52985383  .00000918  00000-0  84691-4 0  9999,2 55774  70.0002 149.4278 0002787 267.2034  92.8806 14.98333348 64056,6950.183,96.107,573.985,570.111,0.0
55774.0,STARLINK-5812,PAYLOAD,2024-04-25 11:08:52,14.9833341,0.0002686,70.0003,147.0719,258.3114,101.7743,-0.00016164,-2.021e-05,0.0,0 STARLINK-5812,1 55774U 23028AK  24116.46449473 -.00002021  00000-0 -16164-3 0  9996,2 55774  70.0003 147.0719 0002686 258.3114 101.7743 14.98333410 64194,6950.182,96.107,573.914,570.181,0.0
55774.0,STARLINK-5812,PAYLOAD,2024-04-26 04:46:20,14.9833643,0.0002798,70.0001,145.2205,255.0748,105.0101,3.6531e-06,-4.9e-07,0.0,0 STARLINK-5812,1 55774U 23028AK  24117.19884511 -.00000049  00000-0  36531-5 0  9992,2 55774  70.0001 145.2205 0002798 255.0748 105.0101 14.98336430 64306,6950.173,96.107,573.983,570.093,0.0
55774.0,STARLINK-5812,PAYLOAD,2024-04-26 11:10:51,14.98344117,0.0002913,69.9994,144.5456,263.746,96.3367,7.7335e-05,8.3e-06,0.0,0 STARLINK-5812,1 55774U 23028AK  24117.46587679  .00000830  00000-0  77335-4 0  9990,2 55774  69.9994 144.5456 0002913 263.7460  96.3367 14.98344117 64341,6950.149,96.106,574.039,569.99,0.0
55774.0,STARLINK-5812,PAYLOAD,2024-04-27 03:12:13,14.98324534,0.0002511,69.9998,142.8605,260.4219,99.6657,6.1163e-05,6.37e-06,0.0,0 STARLINK-5812,1 55774U 23028AK  24118.13348799  .00000637  00000-0  61163-4 0  9990,2 55774  69.9998 142.8605 0002511 260.4219  99.6657 14.98324534 64442,6950.21,96.107,573.82,570.33,0.0
55774.0,STARLINK-5812,PAYLOAD,2024-04-27 11:12:53,14.98324698,0.0003039,69.9993,142.0211,264.3199,95.7613,-1.526e-05,-2.75e-06,0.0,0 STARLINK-5812,1 55774U 23028AK  24118.46729041 -.00000275  00000-0 -15260-4 0  9996,2 55774  69.9993 142.0211 0003039 264.3199  95.7613 14.98324698 64493,6950.209,96.107,574.186,569.962,0.0
55774.0,STARLINK-5812,PAYLOAD,2024-04-28 03:14:14,14.98331242,0.0003202,69.9986,140.3368,267.8579,92.2214,-0.00016509,-2.062e-05,0.0,0 STARLINK-5812,1 55774U 23028AK  24119.13489234 -.00002062  00000-0 -16509-3 0  9990,2 55774  69.9986 140.3368 0003202 267.8579  92.2214 14.98331242 64594,6950.189,96.107,574.28,569.829,0.0
55774.0,STARLINK-5812,PAYLOAD,2024-04-28 11:14:55,14.98330416,0.0003209,69.9985,139.4952,268.1029,91.9762,-0.00015619,-1.956e-05,0.0,0 STARLINK-5812,1 55774U 23028AK  24119.46869249 -.00001956  00000-0 -15619-3 0  9996,2 55774  69.9985 139.4952 0003209 268.1029  91.9762 14.98330416 64644,6950.192,96.107,574.287,569.826,0.0
